ONEWEB-0020             
1 45133U 20008C   24196.48086734  .00000580  00000+0  16250-2 0  9996
2 45133  87.8945 176.0056 0001852  85.1479 274.9860 13.10370900216317
ONEWEB-0023             
1 45136U 20008F   24196.50822199 -.00000502  00000+0 -14743-2 0  9996
2 45136  87.8952 176.0066 0002206  95.2191 264.9188 13.10371593216058
ONEWEB-0024             
1 45137U 20008G   24196.47920559  .00000652  00000+0  18321-2 0  9992
2 45137  87.8938 175.9972 0002064  82.2958 277.8404 13.10371541216211
ONEWEB-0026             
1 45139U 20008J   24196.46530084 -.00000371  00000+0 -10824-2 0  9993
2 45139  87.8979 160.9216 0001864  83.1616 276.9724 13.11416828219005
ONEWEB-0032             
1 45141U 20008L   24196.43602228 -.00000615  00000+0 -17973-2 0  9996
2 45141  87.8942 176.0524 0002190  83.5531 276.5845 13.10373898216264
